{"type": "FeatureCollection", "features": [ {"type": "Feature", "properties": {"norad_id": 37216, "name": "COSMO-SKYMED 4", "group": "resource", "lat": 76.76293114907095, "lon": 31.4349671068407, "alt_km": 614.3743269924644, "timestamp": "2025-12-20T03:42:47.048915+00:00", "meta": {"OBJECT_NAME": "COSMO-SKYMED 4", "OBJECT_ID": "2010-060A", "EPOCH": "2025-12-19T19:09:34.046208", "MEAN_MOTION": 14.82153117, "ECCENTRICITY": 0.0001393, "INCLINATION": 97.8798, "RA_OF_ASC_NODE": 175.0147, "ARG_OF_PERICENTER": 83.5261, "MEAN_ANOMALY": 276.6111, "EPHEMERIS_TYPE": 0, "CLASSIFICATION_TYPE": "U", "NORAD_CAT_ID": 37216, "ELEMENT_SET_NO": 999, "REV_AT_EPOCH": 81799, "BSTAR": 9.3117e-05, "MEAN_MOTION_DOT": 6.89e-06, "MEAN_MOTION_DDOT": 0}, "tle": {"line1": "1 37216U 10060A   25353.79831072  .00000689  00000+0  93117-4 0  9998", "line2": "2 37216  97.8798 175.0147 0001393  83.5261 276.6111 14.82153117817996"}}, "geometry": {"type": "Point", "coordinates": [31.4349671068407, 76.76293114907095]}}, {"type": "Feature", "properties": {"norad_id": 37387, "name": "RESOURCESAT-2", "group": "resource", "lat": -69.99947419097393, "lon": -147.47417552878406, "alt_km": 830.0628658755722, "timestamp": "2025-12-20T03:42:47.048925+00:00", "meta": {"OBJECT_NAME": "RESOURCESAT-2", "OBJECT_ID": "2011-015A", "EPOCH": "2025-12-19T18:05:07.723104", "MEAN_MOTION": 14.21599895, "ECCENTRICITY": 0.0006104, "INCLINATION": 98.7868, "RA_OF_ASC_NODE": 57.2736, "ARG_OF_PERICENTER": 23.8081, "MEAN_ANOMALY": 336.3377, "EPHEMERIS_TYPE": 0, "CLASSIFICATION_TYPE": "U", "NORAD_CAT_ID": 37387, "ELEMENT_SET_NO": 999, "REV_AT_EPOCH": 76068, "BSTAR": 6.7683e-05, "MEAN_MOTION_DOT": 1.04e-06, "MEAN_MOTION_DDOT": 0}, "tle": {"line1": "1 37387U 11015A   25353.75356161  .00000104  00000+0  67683-4 0  9996", "line2": "2 37387  98.7868  57.2736 0006104  23.8081 336.3377 14.21599895760681"}}, "geometry": {"type": "Point", "coordinates": [-147.47417552878406, -69.99947419097393]}}, {"type": "Feature", "properties": {"norad_id": 37781, "name": "HAIYANG-2A", "group": "resource", "lat": -58.89196551417462, "lon": 159.15332395554773, "alt_km": 976.244625547326, "timestamp": "2025-12-20T03:42:47.048936+00:00", "meta": {"OBJECT_NAME": "HAIYANG-2A", "OBJECT_ID": "2011-043A", "EPOCH": "2025-12-19T21:19:39.046368", "MEAN_MOTION": 13.78835975, "ECCENTRICITY": 0.0001642, "INCLINATION": 99.3371, "RA_OF_ASC_NODE": 354.7131, "ARG_OF_PERICENTER": 73.9243, "MEAN_ANOMALY": 286.2089, "EPHEMERIS_TYPE": 0, "CLASSIFICATION_TYPE": "U", "NORAD_CAT_ID": 37781, "ELEMENT_SET_NO": 999, "REV_AT_EPOCH": 72197, "BSTAR": 9.5768e-05, "MEAN_MOTION_DOT": 5.3e-07, "MEAN_MOTION_DDOT": 0}, "tle": {"line1": "1 37781U 11043A   25353.88864637  .00000053  00000+0  95768-4 0  9999", "line2": "2 37781  99.3371 354.7131 0001642  73.9243 286.2089 13.78835975721972"}}, "geometry": {"type": "Point", "coordinates": [159.15332395554773, -58.89196551417462]}}, {"type": "Feature", "properties": {"norad_id": 37791, "name": "RASAT", "group": "resource", "lat": -30.568737807485316, "lon": -101.50161549317292, "alt_km": 688.6211608523172, "timestamp": "2025-12-20T03:42:47.048946+00:00", "meta": {"OBJECT_NAME": "RASAT", "OBJECT_ID": "2011-044D", "EPOCH": "2025-12-19T20:50:26.270304", "MEAN_MOTION": 14.67919789, "ECCENTRICITY": 0.0021607, "INCLINATION": 98.0651, "RA_OF_ASC_NODE": 83.0206, "ARG_OF_PERICENTER": 43.4535, "MEAN_ANOMALY": 94.9741, "EPHEMERIS_TYPE": 0, "CLASSIFICATION_TYPE": "U", "NORAD_CAT_ID": 37791, "ELEMENT_SET_NO": 999, "REV_AT_EPOCH": 76687, "BSTAR": 0.00013281, "MEAN_MOTION_DOT": 7.13e-06, "MEAN_MOTION_DDOT": 0}, "tle": {"line1": "1 37791U 11044D   25353.86835961  .00000713  00000+0  13281-3 0  9999", "line2": "2 37791  98.0651  83.0206 0021607  43.4535  94.9741 14.67919789766876"}}, "geometry": {"type": "Point", "coordinates": [-101.50161549317292, -30.568737807485316]}}, {"type": "Feature", "properties": {"norad_id": 37841, "name": "SRMSAT", "group": "resource", "lat": 11.218368102922142, "lon": 96.17577098210126, "alt_km": 841.6779296560762, "timestamp": "2025-12-20T03:42:47.048956+00:00", "meta": {"OBJECT_NAME": "SRMSAT", "OBJECT_ID": "2011-058D", "EPOCH": "2025-12-19T14:40:57.595008", "MEAN_MOTION": 14.11513672, "ECCENTRICITY": 0.0011928, "INCLINATION": 19.9723, "RA_OF_ASC_NODE": 66.3596, "ARG_OF_PERICENTER": 29.0252, "MEAN_ANOMALY": 120.8933, "EPHEMERIS_TYPE": 0, "CLASSIFICATION_TYPE": "U", "NORAD_CAT_ID": 37841, "ELEMENT_SET_NO": 999, "REV_AT_EPOCH": 73241, "BSTAR": 6.4258e-05, "MEAN_MOTION_DOT": 3.83e-06, "MEAN_MOTION_DDOT": 0}, "tle": {"line1": "1 37841U 11058D   25353.61177772  .00000383  00000+0  64258-4 0  9996", "line2": "2 37841  19.9723  66.3596 0011928  29.0252 120.8933 14.11513672732416"}}, "geometry": {"type": "Point", "coordinates": [96.17577098210126, 11.218368102922142]}}, {"type": "Feature", "properties": {"norad_id": 38012, "name": "PLEIADES 1A", "group": "resource", "lat": 62.09673534923069, "lon": -97.4250427127719, "alt_km": 691.1559261834554, "timestamp": "2025-12-20T03:42:47.048966+00:00", "meta": {"OBJECT_NAME": "PLEIADES 1A", "OBJECT_ID": "2011-076F", "EPOCH": "2025-12-19T21:06:11.766240", "MEAN_MOTION": 14.58567221, "ECCENTRICITY": 0.0001176, "INCLINATION": 98.1822, "RA_OF_ASC_NODE": 66.5381, "ARG_OF_PERICENTER": 73.0293, "MEAN_ANOMALY": 38.4113, "EPHEMERIS_TYPE": 0, "CLASSIFICATION_TYPE": "U", "NORAD_CAT_ID": 38012, "ELEMENT_SET_NO": 999, "REV_AT_EPOCH": 74585, "BSTAR": 5.4746e-05, "MEAN_MOTION_DOT": 2.09e-06, "MEAN_MOTION_DDOT": 0}, "tle": {"line1": "1 38012U 11076F   25353.87930285  .00000209  00000+0  54746-4 0  9999", "line2": "2 38012  98.1822  66.5381 0001176  73.0293  38.4113 14.58567221745854"}}, "geometry": {"type": "Point", "coordinates": [-97.4250427127719, 62.09673534923069]}}, {"type": "Feature", "properties": {"norad_id": 38038, "name": "ZIYUAN 1-02C (ZY 1-02C)", "group": "resource", "lat": -16.893646901216613, "lon": -122.55040385560415, "alt_km": 768.825423033385, "timestamp": "2025-12-20T03:42:47.048977+00:00", "meta": {"OBJECT_NAME": "ZIYUAN 1-02C (ZY 1-02C)", "OBJECT_ID": "2011-079A", "EPOCH": "2025-12-19T20:45:34.753248", "MEAN_MOTION": 14.3801907, "ECCENTRICITY": 0.0007419, "INCLINATION": 98.4331, "RA_OF_ASC_NODE": 59.7476, "ARG_OF_PERICENTER": 119.6293, "MEAN_ANOMALY": 18.2494, "EPHEMERIS_TYPE": 0, "CLASSIFICATION_TYPE": "U", "NORAD_CAT_ID": 38038, "ELEMENT_SET_NO": 999, "REV_AT_EPOCH": 73343, "BSTAR": 9.2135e-05, "MEAN_MOTION_DOT": 2.36e-06, "MEAN_MOTION_DDOT": 0}, "tle": {"line1": "1 38038U 11079A   25353.86498557  .00000236  00000+0  92135-4 0  9994", "line2": "2 38038  98.4331  59.7476 0007419 119.6293  18.2494 14.38019070733433"}}, "geometry": {"type": "Point", "coordinates": [-122.55040385560415, -16.893646901216613]}}, {"type": "Feature", "properties": {"norad_id": 38338, "name": "ARIRANG-3 (KOMPSAT-3)", "group": "resource", "lat": 78.24608109663465, "lon": 173.58414638379435, "alt_km": 683.1516496406712, "timestamp": "2025-12-20T03:42:47.048987+00:00", "meta": {"OBJECT_NAME": "ARIRANG-3 (KOMPSAT-3)", "OBJECT_ID": "2012-025B", "EPOCH": "2025-12-19T20:41:36.617568", "MEAN_MOTION": 14.61721361, "ECCENTRICITY": 0.0004925, "INCLINATION": 98.3332, "RA_OF_ASC_NODE": 308.5055, "ARG_OF_PERICENTER": 314.0795, "MEAN_ANOMALY": 45.9999, "EPHEMERIS_TYPE": 0, "CLASSIFICATION_TYPE": "U", "NORAD_CAT_ID": 38338, "ELEMENT_SET_NO": 999, "REV_AT_EPOCH": 72514, "BSTAR": 8.7612e-05, "MEAN_MOTION_DOT": 3.88e-06, "MEAN_MOTION_DDOT": 0}, "tle": {"line1": "1 38338U 12025B   25353.86222937  .00000388  00000+0  87612-4 0  9998", "line2": "2 38338  98.3332 308.5055 0004925 314.0795  45.9999 14.61721361725146"}}, "geometry": {"type": "Point", "coordinates": [173.58414638379435, 78.24608109663465]}}, {"type": "Feature", "properties": {"norad_id": 38709, "name": "EXACTVIEW-1 (ADS-1B)", "group": "resource", "lat": -15.078356213447433, "lon": -79.73695318779251, "alt_km": 818.8791121683316, "timestamp": "2025-12-20T03:42:47.048998+00:00", "meta": {"OBJECT_NAME": "EXACTVIEW-1 (ADS-1B)", "OBJECT_ID": "2012-039C", "EPOCH": "2025-12-19T20:03:30.157344", "MEAN_MOTION": 14.24910656, "ECCENTRICITY": 0.0010316, "INCLINATION": 98.9639, "RA_OF_ASC_NODE": 102.3747, "ARG_OF_PERICENTER": 333.2324, "MEAN_ANOMALY": 26.8321, "EPHEMERIS_TYPE": 0, "CLASSIFICATION_TYPE": "U", "NORAD_CAT_ID": 38709, "ELEMENT_SET_NO": 999, "REV_AT_EPOCH": 69716, "BSTAR": 6.0016e-05, "MEAN_MOTION_DOT": 9.4e-07, "MEAN_MOTION_DDOT": 0}, "tle": {"line1": "1 38709U 12039C   25353.83576571  .00000094  00000+0  60016-4 0  9991", "line2": "2 38709  98.9639 102.3747 0010316 333.2324  26.8321 14.24910656697167"}}, "geometry": {"type": "Point", "coordinates": [-79.73695318779251, -15.078356213447433]}}, {"type": "Feature", "properties": {"norad_id": 38755, "name": "SPOT 6", "group": "resource", "lat": 39.96026526818018, "lon": 51.90040784423929, "alt_km": 694.0468275078056, "timestamp": "2025-12-20T03:42:47.049008+00:00", "meta": {"OBJECT_NAME": "SPOT 6", "OBJECT_ID": "2012-047A", "EPOCH": "2025-12-19T19:17:45.389184", "MEAN_MOTION": 14.5853788, "ECCENTRICITY": 0.0001317, "INCLINATION": 98.157, "RA_OF_ASC_NODE": 58.4589, "ARG_OF_PERICENTER": 78.0781, "MEAN_ANOMALY": 282.0566, "EPHEMERIS_TYPE": 0, "CLASSIFICATION_TYPE": "U", "NORAD_CAT_ID": 38755, "ELEMENT_SET_NO": 999, "REV_AT_EPOCH": 70690, "BSTAR": 4.6735e-05, "MEAN_MOTION_DOT": 1.72e-06, "MEAN_MOTION_DDOT": 0}, "tle": {"line1": "1 38755U 12047A   25353.80399756  .00000172  00000+0  46735-4 0  9995", "line2": "2 38755  98.1570  58.4589 0001317  78.0781 282.0566 14.58537880706902"}}, "geometry": {"type": "Point", "coordinates": [51.90040784423929, 39.96026526818018]}}]}